start=new Date('2021-10-07T00:00:00.000Z').valueOf();
sats=[{"DECAY_DATE":null,"TIME_SYSTEM":"UTC","ECCENTRICITY":"0.00019740","PERIOD":"95.593","OBJECT_TYPE":"PAYLOAD","SITE":"AFETR","TLE_LINE2":"2 45556  53.0540 136.0286 0001974  75.4762 284.6445 15.06391006 81971","MEAN_MOTION":"15.06391006","PERIAPSIS":"545.874","MEAN_MOTION_DOT":"-0.00000858","ARG_OF_PERICENTER":"75.4762","REF_FRAME":"TEME","NORAD_CAT_ID":"45556","OBJECT_ID":"2020-025AB","REV_AT_EPOCH":"8197","MEAN_ANOMALY":"284.6445","MEAN_ELEMENT_THEORY":"SGP4","FILE":"3148521","RCS_SIZE":"LARGE","LAUNCH_DATE":"2020-04-22","TLE_LINE1":"1 45556U 20025AB  21279.82675519 -.00000858  00000-0 -38677-4 0  9996","COUNTRY_CODE":"US","MEAN_MOTION_DDOT":"0.0000000000000","EPHEMERIS_TYPE":"0","OBJECT_NAME":"STARLINK-1334","APOAPSIS":"548.608","GP_ID":"186422241","CENTER_NAME":"EARTH","RA_OF_ASC_NODE":"136.0286","EPOCH":"2021-10-06T19:50:31.648416","SEMIMAJOR_AXIS":"6925.376","INCLINATION":"53.0540","ELEMENT_SET_NO":"999","BSTAR":"-0.00003867700000","CLASSIFICATION_TYPE":"U"},{"ECCENTRICITY":"0.00020020","TIME_SYSTEM":"UTC","DECAY_DATE":null,"PERIAPSIS":"545.846","PERIOD":"95.593","OBJECT_TYPE":"PAYLOAD","SITE":"AFETR","MEAN_MOTION":"15.06393946","TLE_LINE2":"2 45557  53.0547 135.6980 0002002  75.2931 284.8279 15.06393946 81987","REV_AT_EPOCH":"8198","MEAN_ANOMALY":"284.8279","MEAN_ELEMENT_THEORY":"SGP4","FILE":"3148521","ARG_OF_PERICENTER":"75.2931","MEAN_MOTION_DOT":"0.00001260","NORAD_CAT_ID":"45557","REF_FRAME":"TEME","OBJECT_ID":"2020-025AC","RCS_SIZE":"LARGE","LAUNCH_DATE":"2020-04-22","TLE_LINE1":"1 45557U 20025AC  21279.90048436  .00001260  00000-0  10353-3 0  9994","MEAN_MOTION_DDOT":"0.0000000000000","OBJECT_NAME":"STARLINK-1336","EPHEMERIS_TYPE":"0","COUNTRY_CODE":"US","APOAPSIS":"548.619","GP_ID":"186422491","CENTER_NAME":"EARTH","ELEMENT_SET_NO":"999","RA_OF_ASC_NODE":"135.6980","EPOCH":"2021-10-06T21:36:41.848704","INCLINATION":"53.0547","SEMIMAJOR_AXIS":"6925.367","CLASSIFICATION_TYPE":"U","BSTAR":"0.00010353000000"},{"MEAN_MOTION_DOT":"-0.00000921","ARG_OF_PERICENTER":"83.8985","OBJECT_ID":"2020-025AD","NORAD_CAT_ID":"45558","REF_FRAME":"TEME","MEAN_ANOMALY":"276.2226","MEAN_ELEMENT_THEORY":"SGP4","REV_AT_EPOCH":"8197","FILE":"3148521","RCS_SIZE":"LARGE","TLE_LINE1":"1 45558U 20025AD  21279.86731328 -.00000921  00000-0 -42922-4 0  9992","LAUNCH_DATE":"2020-04-22","DECAY_DATE":null,"TIME_SYSTEM":"UTC","ECCENTRICITY":"0.00019510","SITE":"AFETR","OBJECT_TYPE":"PAYLOAD","PERIOD":"95.593","TLE_LINE2":"2 45558  53.0538 135.8458 0001951  83.8985 276.2226 15.06384749 81973","MEAN_MOTION":"15.06384749","PERIAPSIS":"545.909","EPOCH":"2021-10-06T20:48:55.867392","RA_OF_ASC_NODE":"135.8458","SEMIMAJOR_AXIS":"6925.395","INCLINATION":"53.0538","ELEMENT_SET_NO":"999","BSTAR":"-0.00004292200000","CLASSIFICATION_TYPE":"U","COUNTRY_CODE":"US","OBJECT_NAME":"STARLINK-1342","EPHEMERIS_TYPE":"0","MEAN_MOTION_DDOT":"0.0000000000000","GP_ID":"186423741","CENTER_NAME":"EARTH","APOAPSIS":"548.611"},{"APOAPSIS":"548.486","GP_ID":"186423992","CENTER_NAME":"EARTH","MEAN_MOTION_DDOT":"0.0000000000000","EPHEMERIS_TYPE":"0","OBJECT_NAME":"STARLINK-1344","COUNTRY_CODE":"US","CLASSIFICATION_TYPE":"U","BSTAR":"0.00011357000000","ELEMENT_SET_NO":"999","RA_OF_ASC_NODE":"135.9741","EPOCH":"2021-10-06T20:06:28.224288","SEMIMAJOR_AXIS":"6925.380","INCLINATION":"53.0532","PERIAPSIS":"546.004","PERIOD":"95.593","SITE":"AFETR","OBJECT_TYPE":"PAYLOAD","TLE_LINE2":"2 45559  53.0532 135.9741 0001792  84.8415 275.2778 15.06389771 81977","MEAN_MOTION":"15.06389771","TIME_SYSTEM":"UTC","ECCENTRICITY":"0.00017920","DECAY_DATE":null,"RCS_SIZE":"LARGE","LAUNCH_DATE":"2020-04-22","TLE_LINE1":"1 45559U 20025AE  21279.83782667  .00001410  00000-0  11357-3 0  9991","REV_AT_EPOCH":"8197","MEAN_ELEMENT_THEORY":"SGP4","MEAN_ANOMALY":"275.2778","FILE":"3148521","ARG_OF_PERICENTER":"84.8415","MEAN_MOTION_DOT":"0.00001410","REF_FRAME":"TEME","NORAD_CAT_ID":"45559","OBJECT_ID":"2020-025AE"},{"MEAN_MOTION_DOT":"0.00001298","ARG_OF_PERICENTER":"69.0520","OBJECT_ID":"2020-025AF","NORAD_CAT_ID":"45560","REF_FRAME":"TEME","MEAN_ELEMENT_THEORY":"SGP4","MEAN_ANOMALY":"291.0682","REV_AT_EPOCH":"8212","FILE":"3148521","RCS_SIZE":"LARGE","TLE_LINE1":"1 45560U 20025AF  21279.89034183  .00001298  00000-0  10601-3 0  9997","LAUNCH_DATE":"2020-04-22","DECAY_DATE":null,"ECCENTRICITY":"0.00019940","TIME_SYSTEM":"UTC","SITE":"AFETR","OBJECT_TYPE":"PAYLOAD","PERIOD":"95.592","MEAN_MOTION":"15.06397667","TLE_LINE2":"2 45560  53.0540 125.7415 0001994  69.0520 291.0682 15.06397667 82120","PERIAPSIS":"545.840","RA_OF_ASC_NODE":"125.7415","EPOCH":"2021-10-06T21:22:05.534112","SEMIMAJOR_AXIS":"6925.356","INCLINATION":"53.0540","ELEMENT_SET_NO":"999","BSTAR":"0.00010601000000","CLASSIFICATION_TYPE":"U","COUNTRY_CODE":"US","OBJECT_NAME":"STARLINK-1346","EPHEMERIS_TYPE":"0","MEAN_MOTION_DDOT":"0.0000000000000","GP_ID":"186422741","CENTER_NAME":"EARTH","APOAPSIS":"548.602"},{"MEAN_MOTION":"15.07138518","TLE_LINE2":"2 45561  53.0597  50.6518 0001389 126.6116 233.5001 15.07138518 83173","PERIOD":"95.545","SITE":"AFETR","OBJECT_TYPE":"PAYLOAD","PERIAPSIS":"543.989","DECAY_DATE":null,"TIME_SYSTEM":"UTC","ECCENTRICITY":"0.00013890","LAUNCH_DATE":"2020-04-22","TLE_LINE1":"1 45561U 20025AG  21279.86516231  .00006585  00000-0  45155-3 0  9990","RCS_SIZE":"LARGE","NORAD_CAT_ID":"45561","REF_FRAME":"TEME","OBJECT_ID":"2020-025AG","ARG_OF_PERICENTER":"126.6116","MEAN_MOTION_DOT":"0.00006585","FILE":"3148521","REV_AT_EPOCH":"8317","MEAN_ANOMALY":"233.5001","MEAN_ELEMENT_THEORY":"SGP4","APOAPSIS":"545.913","GP_ID":"186422990","CENTER_NAME":"EARTH","COUNTRY_CODE":"US","MEAN_MOTION_DDOT":"0.0000000000000","OBJECT_NAME":"STARLINK-1348","EPHEMERIS_TYPE":"0","CLASSIFICATION_TYPE":"U","BSTAR":"0.00045155000000","SEMIMAJOR_AXIS":"6923.086","INCLINATION":"53.0597","EPOCH":"2021-10-06T20:45:50.023584","RA_OF_ASC_NODE":"50.6518","ELEMENT_SET_NO":"999"},{"ECCENTRICITY":"0.00019580","TIME_SYSTEM":"UTC","DECAY_DATE":null,"PERIAPSIS":"545.864","PERIOD":"95.592","SITE":"AFETR","OBJECT_TYPE":"PAYLOAD","TLE_LINE2":"2 45562  53.0531 135.9445 0001958  82.5328 277.5883 15.06398023 81975","MEAN_MOTION":"15.06398023","REV_AT_EPOCH":"8197","MEAN_ANOMALY":"277.5883","MEAN_ELEMENT_THEORY":"SGP4","FILE":"3148521","ARG_OF_PERICENTER":"82.5328","MEAN_MOTION_DOT":"0.00000920","NORAD_CAT_ID":"45562","REF_FRAME":"TEME","OBJECT_ID":"2020-025AH","RCS_SIZE":"LARGE","LAUNCH_DATE":"2020-04-22","TLE_LINE1":"1 45562U 20025AH  21279.84518605  .00000920  00000-0  80664-4 0  9998","MEAN_MOTION_DDOT":"0.0000000000000","OBJECT_NAME":"STARLINK-1354","EPHEMERIS_TYPE":"0","COUNTRY_CODE":"US","APOAPSIS":"548.576","CENTER_NAME":"EARTH","GP_ID":"186423242","ELEMENT_SET_NO":"999","EPOCH":"2021-10-06T20:17:04.074720","RA_OF_ASC_NODE":"135.9445","INCLINATION":"53.0531","SEMIMAJOR_AXIS":"6925.355","CLASSIFICATION_TYPE":"U","BSTAR":"0.00008066400000"},{"OBJECT_ID":"2020-025AJ","NORAD_CAT_ID":"45563","REF_FRAME":"TEME","MEAN_MOTION_DOT":"0.00001364","ARG_OF_PERICENTER":"77.8215","FILE":"3148521","MEAN_ELEMENT_THEORY":"SGP4","MEAN_ANOMALY":"282.2983","REV_AT_EPOCH":"8197","TLE_LINE1":"1 45563U 20025AJ  21279.85995391  .00001364  00000-0  11052-3 0  9998","LAUNCH_DATE":"2020-04-22","RCS_SIZE":"LARGE","DECAY_DATE":null,"TIME_SYSTEM":"UTC","ECCENTRICITY":"0.00018640","MEAN_MOTION":"15.06383149","TLE_LINE2":"2 45563  53.0543 135.8783 0001864  77.8215 282.2983 15.06383149 81978","OBJECT_TYPE":"PAYLOAD","SITE":"AFETR","PERIOD":"95.593","PERIAPSIS":"545.974","INCLINATION":"53.0543","SEMIMAJOR_AXIS":"6925.400","RA_OF_ASC_NODE":"135.8783","EPOCH":"2021-10-06T20:38:20.017824","ELEMENT_SET_NO":"999","BSTAR":"0.00011052000000","CLASSIFICATION_TYPE":"U","COUNTRY_CODE":"US","EPHEMERIS_TYPE":"0","OBJECT_NAME":"STARLINK-1355","MEAN_MOTION_DDOT":"0.0000000000000","GP_ID":"186423493","CENTER_NAME":"EARTH","APOAPSIS":"548.556"},{"RCS_SIZE":"LARGE","LAUNCH_DATE":"2020-04-22","TLE_LINE1":"1 45564U 20025AK  21279.85625791  .00000997  00000-0  85881-4 0  9996","MEAN_MOTION_DOT":"0.00000997","ARG_OF_PERICENTER":"74.9594","NORAD_CAT_ID":"45564","REF_FRAME":"TEME","OBJECT_ID":"2020-025AK","REV_AT_EPOCH":"8197","MEAN_ELEMENT_THEORY":"SGP4","MEAN_ANOMALY":"285.1629","FILE":"3148521","PERIOD":"95.593","SITE":"AFETR","OBJECT_TYPE":"PAYLOAD","MEAN_MOTION":"15.06389761","TLE_LINE2":"2 45564  53.0526 135.8923 0002118  74.9594 285.1629 15.06389761 81972","PERIAPSIS":"545.778","DECAY_DATE":null,"ECCENTRICITY":"0.00021180","TIME_SYSTEM":"UTC","BSTAR":"0.00008588100000","CLASSIFICATION_TYPE":"U","EPOCH":"2021-10-06T20:33:00.683424","RA_OF_ASC_NODE":"135.8923","INCLINATION":"53.0526","SEMIMAJOR_AXIS":"6925.380","ELEMENT_SET_NO":"999","APOAPSIS":"548.712","GP_ID":"186422242","CENTER_NAME":"EARTH","COUNTRY_CODE":"US","MEAN_MOTION_DDOT":"0.0000000000000","EPHEMERIS_TYPE":"0","OBJECT_NAME":"STARLINK-1356"},{"ECCENTRICITY":"0.00020810","TIME_SYSTEM":"UTC","DECAY_DATE":null,"PERIAPSIS":"545.795","OBJECT_TYPE":"PAYLOAD","SITE":"AFETR","PERIOD":"95.593","TLE_LINE2":"2 45565  53.0536 135.9281 0002081  80.8061 279.3163 15.06392688 81976","MEAN_MOTION":"15.06392688","MEAN_ANOMALY":"279.3163","MEAN_ELEMENT_THEORY":"SGP4","REV_AT_EPOCH":"8197","FILE":"3148521","MEAN_MOTION_DOT":"0.00001098","ARG_OF_PERICENTER":"80.8061","OBJECT_ID":"2020-025AL","NORAD_CAT_ID":"45565","REF_FRAME":"TEME","RCS_SIZE":"LARGE","TLE_LINE1":"1 45565U 20025AL  21279.84888220  .00001098  00000-0  92632-4 0  9999","LAUNCH_DATE":"2020-04-22","EPHEMERIS_TYPE":"0","OBJECT_NAME":"STARLINK-1357","MEAN_MOTION_DDOT":"0.0000000000000","COUNTRY_CODE":"US","CENTER_NAME":"EARTH","GP_ID":"186422492","APOAPSIS":"548.677","ELEMENT_SET_NO":"999","RA_OF_ASC_NODE":"135.9281","EPOCH":"2021-10-06T20:22:23.422080","INCLINATION":"53.0536","SEMIMAJOR_AXIS":"6925.371","BSTAR":"0.00009263200000","CLASSIFICATION_TYPE":"U"}];
